NORAD_CAT_ID,OBJECT_NAME,OBJECT_TYPE,EPOCH,MEAN_MOTION,ECCENTRICITY,INCLINATION,RA_OF_ASC_NODE,ARG_OF_PERICENTER,MEAN_ANOMALY,BSTAR,MEAN_MOTION_DOT,MEAN_MOTION_DDOT,TLE_LINE0,TLE_LINE1,TLE_LINE2,SEMIMAJOR_AXIS,PERIOD,APOGEE,PERIGEE,DECAYED
53706.0,STARLINK-4716,PAYLOAD,2023-01-27 03:47:21,15.08847794,0.0001158,53.2176,310.8041,80.0868,280.0255,0.00056301,8.686e-05,0.0,0 STARLINK-4716,1 53706U 22107G   23027.15788620  .00008686  00000-0  56301-3 0  9990,2 53706  53.2176 310.8041 0001158  80.0868 280.0255 15.08847794 23122,6917.857,95.437,540.523,538.92,0.0
53706.0,STARLINK-4716,PAYLOAD,2023-01-28 05:13:32,15.08842826,0.0001464,53.2167,306.0452,86.2423,273.8736,0.0011745999999999,0.00018457,0.0,0 STARLINK-4716,1 53706U 22107G   23028.21773448  .00018457  00000-0  11746-2 0  9990,2 53706  53.2167 306.0452 0001464  86.2423 273.8736 15.08842826 22539,6917.871999999999,95.437,540.75,538.724,0.0
53706.0,STARLINK-4716,PAYLOAD,2023-01-29 03:28:56,15.08849712,0.0001489,53.2168,301.8798,86.3003,273.8159,0.00051605,7.937e-05,0.0,0 STARLINK-4716,1 53706U 22107G   23029.14509353  .00007937  00000-0  51605-3 0  9995,2 53706  53.2168 301.8798 0001489  86.3003 273.8159 15.08849712 22673,6917.851,95.437,540.746,538.686,0.0
53706.0,STARLINK-4716,PAYLOAD,2023-01-29 17:47:24,15.08842911,0.0001451,53.2162,299.2048,87.2367,272.8791,0.00025484,3.77e-05,0.0,0 STARLINK-4716,1 53706U 22107G   23029.74125414  .00003770  00000-0  25484-3 0  9990,2 53706  53.2162 299.2048 0001451  87.2367 272.8791 15.08842911 22762,6917.871,95.437,540.74,538.733,0.0
53706.0,STARLINK-4716,PAYLOAD,2023-01-30 03:19:42,15.08850809,0.0001458,53.216,297.4212,84.4461,275.6697,0.00043393,6.627e-05,0.0,0 STARLINK-4716,1 53706U 22107G   23030.13869157  .00006627  00000-0  43393-3 0  9997,2 53706  53.2160 297.4212 0001458  84.4461 275.6697 15.08850809 23575,6917.847,95.437,540.721,538.704,0.0
53706.0,STARLINK-4716,PAYLOAD,2023-01-30 23:59:43,15.0884303,0.0001269,53.2178,293.5561,79.3469,280.7666,0.00010741,1.422e-05,0.0,0 STARLINK-4716,1 53706U 22107G   23030.99981269  .00001422  00000-0  10741-3 0  9999,2 53706  53.2178 293.5561 0001269  79.3469 280.7666 15.08843030 22951,6917.871,95.437,540.614,538.858,0.0
53706.0,STARLINK-4716,PAYLOAD,2023-01-31 03:10:30,15.08847144,0.0001418,53.2175,292.9599,85.4656,274.6498,0.00023111,3.393e-05,0.0,0 STARLINK-4716,1 53706U 22107G   23031.13229167  .00003393  00000-0  23111-3 0  9992,2 53706  53.2175 292.9599 0001418  85.4656 274.6498 15.08847144 23725,6917.859,95.437,540.705,538.743,0.0
53706.0,STARLINK-4716,PAYLOAD,2023-02-01 03:01:16,15.08852288,0.0001462,53.2172,288.4997,88.8026,271.3133,0.00030654,4.596e-05,0.0,0 STARLINK-4716,1 53706U 22107G   23032.12588787  .00004596  00000-0  30654-3 0  9994,2 53706  53.2172 288.4997 0001462  88.8026 271.3133 15.08852288 23120,6917.843,95.437,540.719,538.696,0.0
53706.0,STARLINK-4716,PAYLOAD,2023-02-02 02:52:04,15.08839093,0.0001347,53.217,284.0396,79.5307,280.5837,3.0651e-05,2e-06,0.0,0 STARLINK-4716,1 53706U 22107G   23033.11949319  .00000200  00000-0  30651-4 0  9992,2 53706  53.2170 284.0396 0001347  79.5307 280.5837 15.08839093 23272,6917.883,95.438,540.68,538.816,0.0
53706.0,STARLINK-4716,PAYLOAD,2023-02-03 02:42:50,15.08849874,0.000124,53.216,279.5806,86.2524,273.861,4.4968e-05,4.28e-06,0.0,0 STARLINK-4716,1 53706U 22107G   23034.11308858  .00000428  00000-0  44968-4 0  9998,2 53706  53.2160 279.5806 0001240  86.2524 273.8610 15.08849874 24176,6917.85,95.437,540.573,538.857,0.0
53706.0,STARLINK-4716,PAYLOAD,2023-02-03 15:25:58,15.08808359,0.0002232,53.2176,277.2007,80.9799,279.1445,-0.00031779,-5.338e-05,0.0,0 STARLINK-4716,1 53706U 22107G   23034.64303707 -.00005338  00000-0 -31779-3 0  9996,2 53706  53.2176 277.2007 0002232  80.9799 279.1445 15.08808359 23502,6917.977,95.44,541.386,538.298,0.0
53706.0,STARLINK-4716,PAYLOAD,2023-02-03 17:01:21,15.08818332,0.0001938,53.2125,276.9053,89.281,270.8404,-0.00049974,-8.228e-05,0.0,0 STARLINK-4716,1 53706U 22107G   23034.70927219 -.00008228  00000-0 -49974-3 0  9990,2 53706  53.2125 276.9053 0001938  89.2810 270.8404 15.08818332 23517,6917.947,95.439,541.152,538.471,0.0
53706.0,STARLINK-4716,PAYLOAD,2023-02-04 13:41:19,15.08841757,0.0001938,53.2158,273.0386,104.7129,255.4078,-0.00020438,-3.54e-05,0.0,0 STARLINK-4716,1 53706U 22107G   23035.57036183 -.00003540  00000-0 -20438-3 0  9993,2 53706  53.2158 273.0386 0001938 104.7129 255.4078 15.08841757 23643,6917.875,95.437,541.081,538.399,0.0
53706.0,STARLINK-4716,PAYLOAD,2023-02-04 21:38:14,15.08841937,0.000178,53.2154,271.552,89.8479,270.2717,-0.00015284,-2.72e-05,0.0,0 STARLINK-4716,1 53706U 22107G   23035.90156196 -.00002720  00000-0 -15284-3 0  9999,2 53706  53.2154 271.5520 0001780  89.8479 270.2717 15.08841937 24442,6917.874,95.437,540.971,538.508,0.0
53706.0,STARLINK-4716,PAYLOAD,2023-02-05 00:49:01,15.08844046,0.0001686,53.2153,270.9574,87.0045,273.114,-6.6313e-05,-1.343e-05,0.0,0 STARLINK-4716,1 53706U 22107G   23036.03404134 -.00001343  00000-0 -66313-4 0  9992,2 53706  53.2153 270.9574 0001686  87.0045 273.1140 15.08844046 24465,6917.868,95.437,540.899,538.567,0.0
53706.0,STARLINK-4716,PAYLOAD,2023-02-05 19:53:40,15.08839125,0.0002054,53.2156,267.3873,99.2252,260.8973,-0.00019769,-3.433e-05,0.0,0 STARLINK-4716,1 53706U 22107G   23036.82893709 -.00003433  00000-0 -19769-3 0  9993,2 53706  53.2156 267.3873 0002054  99.2252 260.8973 15.08839125 23834,6917.883,95.438,541.169,538.327,0.0
53706.0,STARLINK-4716,PAYLOAD,2023-02-05 21:29:03,15.08835786,0.0002103,53.2157,267.0909,95.2606,264.8626,-0.00016573,-2.925e-05,0.0,0 STARLINK-4716,1 53706U 22107G   23036.89517961 -.00002925  00000-0 -16573-3 0  9998,2 53706  53.2157 267.0909 0002103  95.2606 264.8626 15.08835786 24598,6917.893,95.438,541.213,538.303,0.0
53706.0,STARLINK-4716,PAYLOAD,2023-02-06 00:39:49,15.08834613,0.0002258,53.2157,266.4961,98.9927,261.132,-0.00014404,-2.58e-05,0.0,0 STARLINK-4716,1 53706U 22107G   23037.02766024 -.00002580  00000-0 -14404-3 0  9998,2 53706  53.2157 266.4961 0002258  98.9927 261.1320 15.08834613 24618,6917.897,95.438,541.324,538.2,0.0
53706.0,STARLINK-4716,PAYLOAD,2023-02-06 21:19:50,15.08840883,0.0001729,53.2152,262.6307,90.0901,270.0289,0.00032869,4.947e-05,0.0,0 STARLINK-4716,1 53706U 22107G   23037.88877747  .00004947  00000-0  32869-3 0  9999,2 53706  53.2152 262.6307 0001729  90.0901 270.0289 15.08840883 23991,6917.878,95.437,540.939,538.547,0.0
53706.0,STARLINK-4716,PAYLOAD,2023-02-07 13:13:42,15.08838884,0.0001641,53.2147,259.6573,87.3813,272.7367,0.00029249,4.37e-05,0.0,0 STARLINK-4716,1 53706U 22107G   23038.55118193  .00004370  00000-0  29249-3 0  9995,2 53706  53.2147 259.6573 0001641  87.3813 272.7367 15.08838884 24096,6917.884,95.438,540.884,538.614,0.0
53706.0,STARLINK-4716,PAYLOAD,2023-02-07 21:10:37,15.08842743,0.0001633,53.2152,258.1701,92.6148,267.5031,0.00026924,4e-05,0.0,0 STARLINK-4716,1 53706U 22107G   23038.88237904  .00004000  00000-0  26924-3 0  9990,2 53706  53.2152 258.1701 0001633  92.6148 267.5031 15.08842743 24897,6917.872,95.437,540.867,538.607,0.0
53706.0,STARLINK-4716,PAYLOAD,2023-02-08 13:04:29,15.08838484,0.000153,53.2147,255.1964,91.0203,269.0964,-3.5733e-06,-3.45e-06,0.0,0 STARLINK-4716,1 53706U 22107G   23039.54478208 -.00000345  00000-0 -35733-5 0  9998,2 53706  53.2147 255.1964 0001530  91.0203 269.0964 15.08838484 24990,6917.885,95.438,540.808,538.692,0.0
53706.0,STARLINK-4716,PAYLOAD,2023-02-08 19:26:01,15.08841353,0.0001468,53.2152,254.0068,94.4314,265.6846,3.6735e-05,2.97e-06,0.0,0 STARLINK-4716,1 53706U 22107G   23039.80973974  .00000297  00000-0  36735-4 0  9993,2 53706  53.2152 254.0068 0001468  94.4314 265.6846 15.08841353 24281,6917.876,95.437,540.757,538.726,0.0
53706.0,STARLINK-4716,PAYLOAD,2023-02-08 21:01:24,15.08843181,0.0001454,53.2152,253.7096,93.7485,266.3673,6.838e-05,8.01e-06,0.0,0 STARLINK-4716,1 53706U 22107G   23039.87597900  .00000801  00000-0  68380-4 0  9993,2 53706  53.2152 253.7096 0001454  93.7485 266.3673 15.08843181 25046,6917.871,95.437,540.742,538.73,0.0
53706.0,STARLINK-4716,PAYLOAD,2023-02-09 09:44:30,15.0883308,0.000149,53.215,251.331,96.1481,263.9681,2.3822e-05,9.1e-07,0.0,0 STARLINK-4716,1 53706U 22107G   23040.40590434  .00000091  00000-0  23822-4 0  9992,2 53706  53.2150 251.3310 0001490  96.1481 263.9681 15.08833080 25128,6917.902,95.438,540.797,538.736,0.0
53706.0,STARLINK-4716,PAYLOAD,2023-02-09 20:52:11,15.08840608,0.0001463,53.215,249.2492,99.0422,261.0735,0.00012043,1.629e-05,0.0,0 STARLINK-4716,1 53706U 22107G   23040.86958186  .00001629  00000-0  12043-3 0  9994,2 53706  53.2150 249.2492 0001463  99.0422 261.0735 15.08840608 25192,6917.879,95.438,540.756,538.731,0.0
53706.0,STARLINK-4716,PAYLOAD,2023-02-10 15:56:49,15.08836824,0.0001361,53.2151,245.6804,101.0581,259.0565,0.00011016,1.466e-05,0.0,0 STARLINK-4716,1 53706U 22107G   23041.66446531  .00001466  00000-0  11016-3 0  9997,2 53706  53.2151 245.6804 0001361 101.0581 259.0565 15.08836824 24560,6917.89,95.438,540.697,538.814,0.0
53706.0,STARLINK-4716,PAYLOAD,2023-02-10 20:42:59,15.08842186,0.0001346,53.2151,244.7885,99.9576,260.1568,0.00018241,2.616e-05,0.0,0 STARLINK-4716,1 53706U 22107G   23041.86318334  .00002616  00000-0  18241-3 0  9993,2 53706  53.2151 244.7885 0001346  99.9576 260.1568 15.08842186 25342,6917.874,95.437,540.67,538.808,0.0
53706.0,STARLINK-4716,PAYLOAD,2023-02-11 12:36:50,15.08833321,0.0001293,53.2152,241.8149,100.2719,259.8419,3.9427e-05,3.4e-06,0.0,0 STARLINK-4716,1 53706U 22107G   23042.52558798  .00000340  00000-0  39427-4 0  9999,2 53706  53.2152 241.8149 0001293 100.2719 259.8419 15.08833321 25442,6917.901,95.438,540.66,538.871,0.0
53706.0,STARLINK-4716,PAYLOAD,2023-02-11 15:47:37,15.08835725,0.0001287,53.2151,241.2204,97.2368,262.8771,6.8003e-05,7.94e-06,0.0,0 STARLINK-4716,1 53706U 22107G   23042.65806730  .00000794  00000-0  68003-4 0  9990,2 53706  53.2151 241.2204 0001287  97.2368 262.8771 15.08835725 25462,6917.893,95.438,540.649,538.868,0.0
